start=new Date('2022-04-07T00:00:00.000Z').valueOf();
sats=[{"ELEMENT_SET_NO":"999","TLE_LINE2":"2 45419  53.0542 121.0764 0001737  63.2445 296.8722 15.06390507113431","CENTER_NAME":"EARTH","LAUNCH_DATE":"2020-03-18","REF_FRAME":"TEME","NORAD_CAT_ID":"45419","BSTAR":"-0.00015696000000","MEAN_MOTION_DOT":"-0.00002618","SITE":"AFETR","EPHEMERIS_TYPE":"0","MEAN_ELEMENT_THEORY":"SGP4","RCS_SIZE":"LARGE","COUNTRY_CODE":"US","DECAY_DATE":null,"SEMIMAJOR_AXIS":"6925.378","GP_ID":"200589017","REV_AT_EPOCH":"11343","MEAN_MOTION":"15.06390507","OBJECT_ID":"2020-019BM","FILE":"3390907","CLASSIFICATION_TYPE":"U","PERIAPSIS":"546.040","MEAN_ANOMALY":"296.8722","RA_OF_ASC_NODE":"121.0764","INCLINATION":"53.0542","OBJECT_TYPE":"PAYLOAD","EPOCH":"2022-04-06T08:42:39.604896","ARG_OF_PERICENTER":"63.2445","MEAN_MOTION_DDOT":"0.0000000000000","OBJECT_NAME":"STARLINK-1308","ECCENTRICITY":"0.00017370","TLE_LINE1":"1 45419U 20019BM  22096.36295839 -.00002618  00000-0 -15696-3 0  9998","PERIOD":"95.593","APOAPSIS":"548.446","TIME_SYSTEM":"UTC"},{"SEMIMAJOR_AXIS":"6925.350","DECAY_DATE":null,"COUNTRY_CODE":"US","MEAN_MOTION":"15.06399596","REV_AT_EPOCH":"10913","GP_ID":"200623024","BSTAR":"-0.00003895100000","REF_FRAME":"TEME","NORAD_CAT_ID":"45531","CENTER_NAME":"EARTH","LAUNCH_DATE":"2020-04-22","ELEMENT_SET_NO":"999","TLE_LINE2":"2 45531  53.0568  58.8351 0001450  70.0035 290.1110 15.06399596109133","RCS_SIZE":"LARGE","SITE":"AFETR","EPHEMERIS_TYPE":"0","MEAN_ELEMENT_THEORY":"SGP4","MEAN_MOTION_DOT":"-0.00000862","ECCENTRICITY":"0.00014500","OBJECT_NAME":"STARLINK-1329","TIME_SYSTEM":"UTC","PERIOD":"95.592","APOAPSIS":"548.219","TLE_LINE1":"1 45531U 20025A   22096.86239333 -.00000862  00000-0 -38951-4 0  9991","INCLINATION":"53.0568","PERIAPSIS":"546.211","MEAN_ANOMALY":"290.1110","RA_OF_ASC_NODE":"58.8351","CLASSIFICATION_TYPE":"U","FILE":"3391320","OBJECT_ID":"2020-025A","ARG_OF_PERICENTER":"70.0035","MEAN_MOTION_DDOT":"0.0000000000000","OBJECT_TYPE":"PAYLOAD","EPOCH":"2022-04-06T20:41:50.783712"},{"RCS_SIZE":"LARGE","MEAN_ELEMENT_THEORY":"SGP4","EPHEMERIS_TYPE":"0","SITE":"AFETR","MEAN_MOTION_DOT":"-0.00001227","BSTAR":"-0.00006353400000","NORAD_CAT_ID":"45532","REF_FRAME":"TEME","LAUNCH_DATE":"2020-04-22","CENTER_NAME":"EARTH","TLE_LINE2":"2 45532  53.0550  58.4826 0001357  79.8852 280.2290 15.06392549109149","ELEMENT_SET_NO":"999","MEAN_MOTION":"15.06392549","REV_AT_EPOCH":"10914","GP_ID":"200623774","SEMIMAJOR_AXIS":"6925.371","DECAY_DATE":null,"COUNTRY_CODE":"US","ARG_OF_PERICENTER":"79.8852","MEAN_MOTION_DDOT":"0.0000000000000","EPOCH":"2022-04-06T22:33:19.032768","OBJECT_TYPE":"PAYLOAD","INCLINATION":"53.0550","RA_OF_ASC_NODE":"58.4826","MEAN_ANOMALY":"280.2290","PERIAPSIS":"546.297","CLASSIFICATION_TYPE":"U","FILE":"3391320","OBJECT_ID":"2020-025B","TIME_SYSTEM":"UTC","APOAPSIS":"548.176","PERIOD":"95.593","TLE_LINE1":"1 45532U 20025B   22096.93980362 -.00001227  00000-0 -63534-4 0  9996","ECCENTRICITY":"0.00013570","OBJECT_NAME":"STARLINK-1338"},{"MEAN_MOTION_DOT":"0.00086158","RCS_SIZE":"LARGE","EPHEMERIS_TYPE":"0","SITE":"AFETR","MEAN_ELEMENT_THEORY":"SGP4","CENTER_NAME":"EARTH","LAUNCH_DATE":"2020-04-22","ELEMENT_SET_NO":"999","TLE_LINE2":"2 45533  53.0500  33.6113 0004415  99.4430 260.7072 15.39647609109481","BSTAR":"0.00213710000000","REF_FRAME":"TEME","NORAD_CAT_ID":"45533","REV_AT_EPOCH":"10948","GP_ID":"200622522","MEAN_MOTION":"15.39647609","DECAY_DATE":null,"COUNTRY_CODE":"US","SEMIMAJOR_AXIS":"6825.288","OBJECT_TYPE":"PAYLOAD","EPOCH":"2022-04-06T19:32:36.670848","ARG_OF_PERICENTER":"99.4430","MEAN_MOTION_DDOT":"0.0000000000000","CLASSIFICATION_TYPE":"U","FILE":"3391320","OBJECT_ID":"2020-025C","INCLINATION":"53.0500","MEAN_ANOMALY":"260.7072","PERIAPSIS":"444.139","RA_OF_ASC_NODE":"33.6113","TLE_LINE1":"1 45533U 20025C   22096.81431332  .00086158  00000-0  21371-2 0  9997","TIME_SYSTEM":"UTC","PERIOD":"93.528","APOAPSIS":"450.166","ECCENTRICITY":"0.00044150","OBJECT_NAME":"STARLINK-1339"},{"OBJECT_NAME":"STARLINK-1341","ECCENTRICITY":"0.00016170","TLE_LINE1":"1 45534U 20025D   22096.61912531 -.00001199  00000-0 -61609-4 0  9995","PERIOD":"95.593","APOAPSIS":"548.358","TIME_SYSTEM":"UTC","OBJECT_ID":"2020-025D","CLASSIFICATION_TYPE":"U","FILE":"3391320","MEAN_ANOMALY":"297.4110","PERIAPSIS":"546.118","RA_OF_ASC_NODE":"59.9183","INCLINATION":"53.0548","OBJECT_TYPE":"PAYLOAD","EPOCH":"2022-04-06T14:51:32.426784","MEAN_MOTION_DDOT":"0.0000000000000","ARG_OF_PERICENTER":"62.7044","COUNTRY_CODE":"US","DECAY_DATE":null,"SEMIMAJOR_AXIS":"6925.373","GP_ID":"200622273","REV_AT_EPOCH":"10909","MEAN_MOTION":"15.06392031","ELEMENT_SET_NO":"999","TLE_LINE2":"2 45534  53.0548  59.9183 0001617  62.7044 297.4110 15.06392031109094","CENTER_NAME":"EARTH","LAUNCH_DATE":"2020-04-22","REF_FRAME":"TEME","NORAD_CAT_ID":"45534","BSTAR":"-0.00006160900000","MEAN_MOTION_DOT":"-0.00001199","EPHEMERIS_TYPE":"0","SITE":"AFETR","MEAN_ELEMENT_THEORY":"SGP4","RCS_SIZE":"LARGE"},{"OBJECT_NAME":"STARLINK-1350","ECCENTRICITY":"0.00014820","PERIOD":"95.592","APOAPSIS":"548.231","TIME_SYSTEM":"UTC","TLE_LINE1":"1 45535U 20025E   22096.90293866  .00002718  00000-0  20126-3 0  9995","MEAN_ANOMALY":"295.6625","PERIAPSIS":"546.179","RA_OF_ASC_NODE":"58.6474","INCLINATION":"53.0534","OBJECT_ID":"2020-025E","FILE":"3391320","CLASSIFICATION_TYPE":"U","MEAN_MOTION_DDOT":"0.0000000000000","ARG_OF_PERICENTER":"64.4517","OBJECT_TYPE":"PAYLOAD","EPOCH":"2022-04-06T21:40:13.900224","SEMIMAJOR_AXIS":"6925.340","COUNTRY_CODE":"US","DECAY_DATE":null,"MEAN_MOTION":"15.06402814","GP_ID":"200623524","REV_AT_EPOCH":"10914","NORAD_CAT_ID":"45535","REF_FRAME":"TEME","BSTAR":"0.00020126000000","ELEMENT_SET_NO":"999","TLE_LINE2":"2 45535  53.0534  58.6474 0001482  64.4517 295.6625 15.06402814109141","CENTER_NAME":"EARTH","LAUNCH_DATE":"2020-04-22","SITE":"AFETR","EPHEMERIS_TYPE":"0","MEAN_ELEMENT_THEORY":"SGP4","RCS_SIZE":"LARGE","MEAN_MOTION_DOT":"0.00002718"},{"SITE":"AFETR","EPHEMERIS_TYPE":"0","MEAN_ELEMENT_THEORY":"SGP4","RCS_SIZE":"LARGE","MEAN_MOTION_DOT":"0.00000751","NORAD_CAT_ID":"45536","REF_FRAME":"TEME","BSTAR":"0.00006933900000","ELEMENT_SET_NO":"999","TLE_LINE2":"2 45536  53.0546  61.3086 0001577  61.3380 298.7767 15.06396579109044","CENTER_NAME":"EARTH","LAUNCH_DATE":"2020-04-22","MEAN_MOTION":"15.06396579","GP_ID":"200588029","REV_AT_EPOCH":"10904","SEMIMAJOR_AXIS":"6925.359","COUNTRY_CODE":"US","DECAY_DATE":null,"ARG_OF_PERICENTER":"61.3380","MEAN_MOTION_DDOT":"0.0000000000000","OBJECT_TYPE":"PAYLOAD","EPOCH":"2022-04-06T07:25:41.200896","MEAN_ANOMALY":"298.7767","PERIAPSIS":"546.132","RA_OF_ASC_NODE":"61.3086","INCLINATION":"53.0546","OBJECT_ID":"2020-025F","CLASSIFICATION_TYPE":"U","FILE":"3390907","PERIOD":"95.592","APOAPSIS":"548.316","TIME_SYSTEM":"UTC","TLE_LINE1":"1 45536U 20025F   22096.30950464  .00000751  00000-0  69339-4 0  9999","OBJECT_NAME":"STARLINK-1352","ECCENTRICITY":"0.00015770"},{"OBJECT_NAME":"STARLINK-1353","ECCENTRICITY":"0.00033150","TLE_LINE1":"1 45537U 20025G   22096.94315454  .00042499  00000-0  19428-2 0  9991","PERIOD":"94.727","APOAPSIS":"507.643","TIME_SYSTEM":"UTC","OBJECT_ID":"2020-025G","FILE":"3391320","CLASSIFICATION_TYPE":"U","PERIAPSIS":"503.079","MEAN_ANOMALY":"230.9117","RA_OF_ASC_NODE":"21.0480","INCLINATION":"53.0047","OBJECT_TYPE":"PAYLOAD","EPOCH":"2022-04-06T22:38:08.552256","MEAN_MOTION_DDOT":"0.0000000000000","ARG_OF_PERICENTER":"129.2172","COUNTRY_CODE":"US","DECAY_DATE":null,"SEMIMAJOR_AXIS":"6883.496","GP_ID":"200622023","REV_AT_EPOCH":"10964","MEAN_MOTION":"15.20159492","ELEMENT_SET_NO":"999","TLE_LINE2":"2 45537  53.0047  21.0480 0003315 129.2172 230.9117 15.20159492109647","CENTER_NAME":"EARTH","LAUNCH_DATE":"2020-04-22","REF_FRAME":"TEME","NORAD_CAT_ID":"45537","BSTAR":"0.00194280000000","MEAN_MOTION_DOT":"0.00042499","EPHEMERIS_TYPE":"0","SITE":"AFETR","MEAN_ELEMENT_THEORY":"SGP4","RCS_SIZE":"LARGE"},{"PERIOD":"95.593","APOAPSIS":"548.317","TIME_SYSTEM":"UTC","TLE_LINE1":"1 45538U 20025H   22096.86608963  .00001154  00000-0  96345-4 0  9991","OBJECT_NAME":"STARLINK-1362","ECCENTRICITY":"0.00015600","ARG_OF_PERICENTER":"61.5720","MEAN_MOTION_DDOT":"0.0000000000000","OBJECT_TYPE":"PAYLOAD","EPOCH":"2022-04-06T20:47:10.144032","PERIAPSIS":"546.157","MEAN_ANOMALY":"298.5426","RA_OF_ASC_NODE":"58.8145","INCLINATION":"53.0559","OBJECT_ID":"2020-025H","CLASSIFICATION_TYPE":"U","FILE":"3391320","MEAN_MOTION":"15.06392361","GP_ID":"200622773","REV_AT_EPOCH":"10913","SEMIMAJOR_AXIS":"6925.372","COUNTRY_CODE":"US","DECAY_DATE":null,"EPHEMERIS_TYPE":"0","SITE":"AFETR","MEAN_ELEMENT_THEORY":"SGP4","RCS_SIZE":"LARGE","MEAN_MOTION_DOT":"0.00001154","NORAD_CAT_ID":"45538","REF_FRAME":"TEME","BSTAR":"0.00009634500000","ELEMENT_SET_NO":"999","TLE_LINE2":"2 45538  53.0559  58.8145 0001560  61.5720 298.5426 15.06392361109134","CENTER_NAME":"EARTH","LAUNCH_DATE":"2020-04-22"},{"OBJECT_TYPE":"PAYLOAD","EPOCH":"2022-04-06T20:43:33.013056","ARG_OF_PERICENTER":"281.6800","MEAN_MOTION_DDOT":"0.0000000000000","OBJECT_ID":"2020-025J","CLASSIFICATION_TYPE":"U","FILE":"3390999","PERIAPSIS":"333.856","MEAN_ANOMALY":"78.3253","RA_OF_ASC_NODE":"252.8705","INCLINATION":"53.0460","TLE_LINE1":"1 45539U 20025J   22096.86357654  .00011849  00000-0  76096-4 0  9993","PERIOD":"91.327","APOAPSIS":"345.426","TIME_SYSTEM":"UTC","OBJECT_NAME":"STARLINK-1367","ECCENTRICITY":"0.00086120","MEAN_MOTION_DOT":"0.00011849","SITE":"AFETR","EPHEMERIS_TYPE":"0","MEAN_ELEMENT_THEORY":"SGP4","RCS_SIZE":"LARGE","ELEMENT_SET_NO":"999","TLE_LINE2":"2 45539  53.0460 252.8705 0008612 281.6800  78.3253 15.76755944110831","CENTER_NAME":"EARTH","LAUNCH_DATE":"2020-04-22","NORAD_CAT_ID":"45539","REF_FRAME":"TEME","BSTAR":"0.00007609600000","GP_ID":"200596359","REV_AT_EPOCH":"11083","MEAN_MOTION":"15.76755944","COUNTRY_CODE":"US","DECAY_DATE":null,"SEMIMAJOR_AXIS":"6717.776"}];
